{"type": "FeatureCollection", "features": [ {"type": "Feature", "properties": {"norad_id": 28649, "name": "IRS-P5 (CARTOSAT-1)", "group": "resource", "lat": 8.25757431391361, "lon": 14.370585658529725, "alt_km": 597.9055292682624, "timestamp": "2025-12-15T04:01:20.099183+00:00", "meta": {"OBJECT_NAME": "IRS-P5 (CARTOSAT-1)", "OBJECT_ID": "2005-017A", "EPOCH": "2025-12-14T08:38:58.249824", "MEAN_MOTION": 14.90412626, "ECCENTRICITY": 0.00011474, "INCLINATION": 97.5499, "RA_OF_ASC_NODE": 14.702, "ARG_OF_PERICENTER": 48.5235, "MEAN_ANOMALY": 311.6082, "EPHEMERIS_TYPE": 0, "CLASSIFICATION_TYPE": "U", "NORAD_CAT_ID": 28649, "ELEMENT_SET_NO": 999, "REV_AT_EPOCH": 11628, "BSTAR": 0.00025950197, "MEAN_MOTION_DOT": 2.476e-05, "MEAN_MOTION_DDOT": 0}, "tle": {"line1": "1 28649U 05017A   25348.36039641  .00002476  00000+0  25950-3 0  9998", "line2": "2 28649  97.5499  14.7020 0001147  48.5235 311.6082 14.90412626116282"}}, "geometry": {"type": "Point", "coordinates": [14.370585658529725, 8.25757431391361]}}, {"type": "Feature", "properties": {"norad_id": 28893, "name": "SINAH 1", "group": "resource", "lat": 48.07086181625308, "lon": -52.96081116837928, "alt_km": 665.219535113697, "timestamp": "2025-12-15T04:01:20.099194+00:00", "meta": {"OBJECT_NAME": "SINAH 1", "OBJECT_ID": "2005-043D", "EPOCH": "2025-12-14T07:44:28.973184", "MEAN_MOTION": 14.63964821, "ECCENTRICITY": 0.00154116, "INCLINATION": 98.2603, "RA_OF_ASC_NODE": 116.884, "ARG_OF_PERICENTER": 132.3381, "MEAN_ANOMALY": 227.913, "EPHEMERIS_TYPE": 0, "CLASSIFICATION_TYPE": "U", "NORAD_CAT_ID": 28893, "ELEMENT_SET_NO": 999, "REV_AT_EPOCH": 7347, "BSTAR": 0.00013569461, "MEAN_MOTION_DOT": 6.63e-06, "MEAN_MOTION_DDOT": 0}, "tle": {"line1": "1 28893U 05043D   25348.32255756  .00000663  00000+0  13569-3 0  9990", "line2": "2 28893  98.2603 116.8840 0015411 132.3381 227.9130 14.63964821 73470"}}, "geometry": {"type": "Point", "coordinates": [-52.96081116837928, 48.07086181625308]}}, {"type": "Feature", "properties": {"norad_id": 29079, "name": "EROS B", "group": "resource", "lat": -25.387949974207057, "lon": 109.36821563579618, "alt_km": 365.5697792873161, "timestamp": "2025-12-15T04:01:20.099205+00:00", "meta": {"OBJECT_NAME": "EROS B", "OBJECT_ID": "2006-014A", "EPOCH": "2025-12-14T08:13:57.423072", "MEAN_MOTION": 15.6887172, "ECCENTRICITY": 0.00026124, "INCLINATION": 97.3463, "RA_OF_ASC_NODE": 104.9933, "ARG_OF_PERICENTER": 309.2192, "MEAN_ANOMALY": 50.8838, "EPHEMERIS_TYPE": 0, "CLASSIFICATION_TYPE": "U", "NORAD_CAT_ID": 29079, "ELEMENT_SET_NO": 999, "REV_AT_EPOCH": 9105, "BSTAR": 0.0013767744, "MEAN_MOTION_DOT": 0.00160389, "MEAN_MOTION_DDOT": 0}, "tle": {"line1": "1 29079U 06014A   25348.34302573  .00160389  00000+0  13768-2 0  9990", "line2": "2 29079  97.3463 104.9933 0002612 309.2192  50.8838 15.68871720 91059"}}, "geometry": {"type": "Point", "coordinates": [109.36821563579618, -25.387949974207057]}}, {"type": "Feature", "properties": {"norad_id": 29228, "name": "RESURS-DK 1", "group": "resource", "lat": 54.61787452920982, "lon": -115.41281088325104, "alt_km": 527.3526188767019, "timestamp": "2025-12-15T04:01:20.099221+00:00", "meta": {"OBJECT_NAME": "RESURS-DK 1", "OBJECT_ID": "2006-021A", "EPOCH": "2025-12-14T06:51:20.983392", "MEAN_MOTION": 15.12172471, "ECCENTRICITY": 0.00070958, "INCLINATION": 69.9333, "RA_OF_ASC_NODE": 97.8432, "ARG_OF_PERICENTER": 257.9448, "MEAN_ANOMALY": 102.0923, "EPHEMERIS_TYPE": 0, "CLASSIFICATION_TYPE": "U", "NORAD_CAT_ID": 29228, "ELEMENT_SET_NO": 999, "REV_AT_EPOCH": 7461, "BSTAR": 0.00019725166, "MEAN_MOTION_DOT": 3.306e-05, "MEAN_MOTION_DDOT": 0}, "tle": {"line1": "1 29228U 06021A   25348.28565953  .00003306  00000+0  19725-3 0  9995", "line2": "2 29228  69.9333  97.8432 0007095 257.9448 102.0923 15.12172471 74617"}}, "geometry": {"type": "Point", "coordinates": [-115.41281088325104, 54.61787452920982]}}, {"type": "Feature", "properties": {"norad_id": 29268, "name": "ARIRANG-2 (KOMPSAT-2)", "group": "resource", "lat": 40.792082380238625, "lon": 170.705054226673, "alt_km": 677.1422398110744, "timestamp": "2025-12-15T04:01:20.099245+00:00", "meta": {"OBJECT_NAME": "ARIRANG-2 (KOMPSAT-2)", "OBJECT_ID": "2006-031A", "EPOCH": "2025-12-14T08:43:15.155040", "MEAN_MOTION": 14.64495923, "ECCENTRICITY": 0.00134457, "INCLINATION": 97.8265, "RA_OF_ASC_NODE": 176.757, "ARG_OF_PERICENTER": 303.7051, "MEAN_ANOMALY": 180.0187, "EPHEMERIS_TYPE": 0, "CLASSIFICATION_TYPE": "U", "NORAD_CAT_ID": 29268, "ELEMENT_SET_NO": 999, "REV_AT_EPOCH": 3442, "BSTAR": 0.00012611439, "MEAN_MOTION_DOT": 6.24e-06, "MEAN_MOTION_DDOT": 0}, "tle": {"line1": "1 29268U 06031A   25348.36336985  .00000624  00000+0  12611-3 0  9997", "line2": "2 29268  97.8265 176.7570 0013445 303.7051 180.0187 14.64495923 34420"}}, "geometry": {"type": "Point", "coordinates": [170.705054226673, 40.792082380238625]}}, {"type": "Feature", "properties": {"norad_id": 29709, "name": "LAPAN-TUBSAT", "group": "resource", "lat": 18.862074893065554, "lon": 162.1720228836425, "alt_km": 612.4063925188902, "timestamp": "2025-12-15T04:01:20.099268+00:00", "meta": {"OBJECT_NAME": "LAPAN-TUBSAT", "OBJECT_ID": "2007-001A", "EPOCH": "2025-12-14T07:54:18.372384", "MEAN_MOTION": 14.85674735, "ECCENTRICITY": 0.00135614, "INCLINATION": 98.126, "RA_OF_ASC_NODE": 338.5186, "ARG_OF_PERICENTER": 69.4249, "MEAN_ANOMALY": 290.8419, "EPHEMERIS_TYPE": 0, "CLASSIFICATION_TYPE": "U", "NORAD_CAT_ID": 29709, "ELEMENT_SET_NO": 999, "REV_AT_EPOCH": 2370, "BSTAR": 0.00016278181, "MEAN_MOTION_DOT": 1.356e-05, "MEAN_MOTION_DDOT": 0}, "tle": {"line1": "1 29709U 07001A   25348.32937931  .00001356  00000+0  16278-3 0  9995", "line2": "2 29709  98.1260 338.5186 0013561  69.4249 290.8419 14.85674735 23704"}}, "geometry": {"type": "Point", "coordinates": [162.1720228836425, 18.862074893065554]}}, {"type": "Feature", "properties": {"norad_id": 31113, "name": "HAIYANG-1B", "group": "resource", "lat": -70.00889516283632, "lon": -2.900739623666705, "alt_km": 797.9849771807585, "timestamp": "2025-12-15T04:01:20.099284+00:00", "meta": {"OBJECT_NAME": "HAIYANG-1B", "OBJECT_ID": "2007-010A", "EPOCH": "2025-12-13T22:09:00.193824", "MEAN_MOTION": 14.30965522, "ECCENTRICITY": 0.00142076, "INCLINATION": 98.3315, "RA_OF_ASC_NODE": 332.1521, "ARG_OF_PERICENTER": 34.6099, "MEAN_ANOMALY": 325.6007, "EPHEMERIS_TYPE": 0, "CLASSIFICATION_TYPE": "U", "NORAD_CAT_ID": 31113, "ELEMENT_SET_NO": 999, "REV_AT_EPOCH": 97413, "BSTAR": 8.7561363e-05, "MEAN_MOTION_DOT": 1.89e-06, "MEAN_MOTION_DDOT": 0}, "tle": {"line1": "1 31113U 07010A   25347.92291891  .00000189  00000+0  87561-4 0  9997", "line2": "2 31113  98.3315 332.1521 0014207  34.6099 325.6007 14.30965522974136"}}, "geometry": {"type": "Point", "coordinates": [-2.900739623666705, -70.00889516283632]}}, {"type": "Feature", "properties": {"norad_id": 31598, "name": "COSMO-SKYMED 1", "group": "resource", "lat": -24.734478078322834, "lon": -9.077736967350276, "alt_km": 585.981620521492, "timestamp": "2025-12-15T04:01:20.099296+00:00", "meta": {"OBJECT_NAME": "COSMO-SKYMED 1", "OBJECT_ID": "2007-023A", "EPOCH": "2025-12-14T07:50:35.651328", "MEAN_MOTION": 14.95780283, "ECCENTRICITY": 0.00013582, "INCLINATION": 97.8834, "RA_OF_ASC_NODE": 173.7361, "ARG_OF_PERICENTER": 90.4221, "MEAN_ANOMALY": 269.7155, "EPHEMERIS_TYPE": 0, "CLASSIFICATION_TYPE": "U", "NORAD_CAT_ID": 31598, "ELEMENT_SET_NO": 999, "REV_AT_EPOCH": 214, "BSTAR": 0.00042066579, "MEAN_MOTION_DOT": 4.634e-05, "MEAN_MOTION_DDOT": 0}, "tle": {"line1": "1 31598U 07023A   25348.32680152  .00004634  00000+0  42067-3 0  9995", "line2": "2 31598  97.8834 173.7361 0001358  90.4221 269.7155 14.95780283  2149"}}, "geometry": {"type": "Point", "coordinates": [-9.077736967350276, -24.734478078322834]}}, {"type": "Feature", "properties": {"norad_id": 31698, "name": "TERRASAR-X", "group": "resource", "lat": 63.60784777271117, "lon": -20.768219673127767, "alt_km": 501.05901003906456, "timestamp": "2025-12-15T04:01:20.099307+00:00", "meta": {"OBJECT_NAME": "TERRASAR-X", "OBJECT_ID": "2007-026A", "EPOCH": "2025-12-13T12:13:05.117664", "MEAN_MOTION": 15.19151549, "ECCENTRICITY": 0.00017647, "INCLINATION": 97.4456, "RA_OF_ASC_NODE": 352.8775, "ARG_OF_PERICENTER": 89.7934, "MEAN_ANOMALY": 270.3503, "EPHEMERIS_TYPE": 0, "CLASSIFICATION_TYPE": "U", "NORAD_CAT_ID": 31698, "ELEMENT_SET_NO": 999, "REV_AT_EPOCH": 2503, "BSTAR": 0.00010409632, "MEAN_MOTION_DOT": 2.12e-05, "MEAN_MOTION_DDOT": 0}, "tle": {"line1": "1 31698U 07026A   25347.50908701  .00002120  00000+0  10410-3 0  9996", "line2": "2 31698  97.4456 352.8775 0001764  89.7934 270.3503 15.19151549 25030"}}, "geometry": {"type": "Point", "coordinates": [-20.768219673127767, 63.60784777271117]}}, {"type": "Feature", "properties": {"norad_id": 32060, "name": "WORLDVIEW-1 (WV-1)", "group": "resource", "lat": 64.41963304919457, "lon": -57.66985257243886, "alt_km": 484.752584297481, "timestamp": "2025-12-15T04:01:20.099319+00:00", "meta": {"OBJECT_NAME": "WORLDVIEW-1 (WV-1)", "OBJECT_ID": "2007-041A", "EPOCH": "2025-12-14T07:02:45.883968", "MEAN_MOTION": 15.24724364, "ECCENTRICITY": 8.098e-05, "INCLINATION": 97.3831, "RA_OF_ASC_NODE": 105.7522, "ARG_OF_PERICENTER": 111.4383, "MEAN_ANOMALY": 248.6941, "EPHEMERIS_TYPE": 0, "CLASSIFICATION_TYPE": "U", "NORAD_CAT_ID": 32060, "ELEMENT_SET_NO": 999, "REV_AT_EPOCH": 1471, "BSTAR": 0.00039891598, "MEAN_MOTION_DOT": 9.806e-05, "MEAN_MOTION_DDOT": 0}, "tle": {"line1": "1 32060U 07041A   25348.29358662  .00009806  00000+0  39892-3 0  9992", "line2": "2 32060  97.3831 105.7522 0000809 111.4383 248.6941 15.24724364 14719"}}, "geometry": {"type": "Point", "coordinates": [-57.66985257243886, 64.41963304919457]}}]}